GLOBALSTAR M057         
1 25943U 99058A   25179.78382438 -.00000046  00000+0  42874-3 0  9999
2 25943  52.0002 315.2942 0003023  54.5732 305.5400 12.24823416168357
GLOBALSTAR M059         
1 25944U 99058B   25180.24130307 -.00000095  00000+0 -11463-3 0  9994
2 25944  51.9985 174.5625 0000743 321.1225  51.8139 11.99980151164241
GLOBALSTAR M056         
1 25945U 99058C   25179.73147097 -.00000087  00000+0  28354-5 0  9990
2 25945  51.9931 177.6052 0001036 214.9573 316.0668 12.04781845164016
GLOBALSTAR M031         
1 25946U 99058D   25180.01076220  .00000071  00000+0  16403-2 0  9994
2 25946  51.9971  68.4650 0000792 174.6263 289.9969 12.16037879166229
GLOBALSTAR M039         
1 25961U 99062A   25180.12115762 -.00000087  00000+0  94587-4 0  9992
2 25961  51.9828 232.3697 0002431  18.5412 341.5543 12.62328980181759
GLOBALSTAR M034         
1 25962U 99062B   25179.73806479 -.00000117  00000+0 -57312-3 0  9999
2 25962  51.9896 341.3618 0014778  65.1013  35.6772 11.79445881139756
GLOBALSTAR M029         
1 25963U 99062C   25179.91827940 -.00000049  00000+0  46568-3 0  9990
2 25963  51.9814  63.4624 0002663 125.0379 248.7309 11.99898229170531
GLOBALSTAR M061         
1 25964U 99062D   25179.70048610 -.00000084  00000+0 -56811-4 0  9990
2 25964  51.9760 165.6467 0006241 344.3980 186.7516 11.76776456122532
